[{"OBJECT_NAME":"COSMO-SKYMED 2","OBJECT_ID":"2007-059A","EPOCH":"2026-03-09T23:42:47.291040","MEAN_MOTION":14.82166446,"ECCENTRICITY":0.00012683,"INCLINATION":97.8865,"RA_OF_ASC_NODE":254.0198,"ARG_OF_PERICENTER":84.565,"MEAN_ANOMALY":275.5708,"EPHEMERIS_TYPE":0,"CLASSIFICATION_TYPE":"U","NORAD_CAT_ID":32376,"ELEMENT_SET_NO":999,"REV_AT_EPOCH":98730,"BSTAR":9.1071047e-5,"MEAN_MOTION_DOT":6.73e-6,"MEAN_MOTION_DDOT":0},{"OBJECT_NAME":"DELTA 1 DEB","OBJECT_ID":"1977-065GG","EPOCH":"2026-03-09T13:57:52.096608","MEAN_MOTION":13.93281751,"ECCENTRICITY":0.0415927,"INCLINATION":29.1152,"RA_OF_ASC_NODE":220.7577,"ARG_OF_PERICENTER":8.3779,"MEAN_ANOMALY":60.8159,"EPHEMERIS_TYPE":0,"CLASSIFICATION_TYPE":"U","NORAD_CAT_ID":27575,"ELEMENT_SET_NO":999,"REV_AT_EPOCH":37780,"BSTAR":0.0012328,"MEAN_MOTION_DOT":3.44e-5,"MEAN_MOTION_DDOT":0}]
